NOAA 15                 
1 25338U 98030A   24054.55898208  .00000272  00000+0  13103-3 0  9992
2 25338  98.5823  84.0140 0009346 302.6935  57.3343 14.26499939340845
NOAA 18                 
1 28654U 05018A   24054.50896371  .00000267  00000+0  16623-3 0  9998
2 28654  98.8833 132.4020 0014546  32.3726 327.8336 14.13129738966979
NOAA 19                 
1 33591U 09005A   24054.58607186  .00000277  00000+0  17313-3 0  9994
2 33591  99.0642 109.0997 0012968 253.7932 106.1812 14.12933336775187
METEOR-M 2              
1 40069U 14037A   24054.60432568  .00000221  00000+0  12127-3 0  9993
2 40069  98.4332  53.9898 0005296 343.4979  16.6026 14.20897391499358
METEOR-M2 2             
1 44387U 19038A   24054.60948876  .00000092  00000+0  59655-4 0  9994
2 44387  98.8131  23.4683 0000586 351.9074   8.2094 14.23854596241087
METEOR-M2 3             
1 57166U 23091A   24054.57514212  .00000041  00000+0  37241-4 0  9997
2 57166  98.7298 110.1934 0005099 101.2338 258.9414 14.23872890 34318
